[{"line1":"1 43618U 18071A   22221.91233336 -.00000004  00000-0  48375-5 0  9995","line2":"2 43618  97.6788 115.7924 0012015 177.2218 182.9089 14.94868412212622"},{"line1":"1 43619U 18071B   22221.89964895 -.00000419  00000-0 -33239-4 0  9997","line2":"2 43619  97.6814 115.9011 0005891 166.7203 193.4178 14.94931140212617"},{"line1":"1 43620U 18071C   22221.33571633  .00000566  00000-0  61210-4 0  9993","line2":"2 43620  97.5246  83.3901 0030960 178.4214 181.7109 14.91619571211981"},{"line1":"1 43622U 18072A   22221.65581638 -.00000025  00000-0  00000+0 0  9993","line2":"2 43622  55.5077 109.5683 0006340 296.6255  70.4559  1.86231968 26448"},{"line1":"1 43623U 18072B   22221.27691525 -.00000027  00000-0  00000-0 0  9992","line2":"2 43623  55.5099 109.5724 0004600 326.9260 236.3569  1.86232004 26434"},{"line1":"1 43624U 18072C   22221.44224185  .00137193  58029-6  50670-3 0  9991","line2":"2 43624  54.9905  45.4657 5472723 280.2525  25.1233  5.01039244 65193"},{"line1":"1 43625U 18072D   22219.90543508 -.00000024  00000-0  00000-0 0  9995","line2":"2 43625  55.3343 114.1523 0095611  38.2505 322.4701  1.77482303 25176"},{"line1":"1 43627U 13065D   22220.23069235  .00005292  00000-0  39609-2 0  9992","line2":"2 43627 100.5414 207.2051 0209765 166.9131 193.7580 13.85267733199964"},{"line1":"1 43628U 13065E   22221.38922076  .00002260  00000-0  10589-2 0  9999","line2":"2 43628 100.5406 266.8094 0225474  51.2400 310.8677 14.08957662203366"},{"line1":"1 43629U 13065F   22221.21241329  .00001835  00000-0  23866-2 0  9996","line2":"2 43629 100.9058 196.7856 0122289 348.1062  11.7193 13.60572038196675"},{"line1":"1 43631U 13065G   22221.39632540  .00001445  00000-0  12355-2 0  9995","line2":"2 43631 100.5918 204.6449 0210914 187.4395 172.3607 13.79354849199767"},{"line1":"1 43632U 18074A   22221.76299431  .00000127  00000-0  00000+0 0  9997","line2":"2 43632   0.0153  88.2589 0001697  50.1244 139.6039  1.00270523 14330"},{"line1":"1 43633U 18074B   22221.68452065 -.00000040  00000-0  00000+0 0  9998","line2":"2 43633   0.0038 294.0989 0001735  12.1842  67.2649  1.00271240 14205"},{"line1":"1 43634U 18074C   22221.26510341  .00001116  00000-0  59481-3 0  9990","line2":"2 43634   6.2589 302.6211 7226382 266.7812  16.3676  2.32756470 32605"},{"line1":"1 43635U 18074D   22221.31855802  .00054490  00000-0  85983-2 0  9999","line2":"2 43635   6.0976 207.8409 6749739  90.2379 340.9027  2.98602080 36544"},{"line1":"1 43636U 18075A   22221.81509666  .00000162  00000-0  45766-4 0  9994","line2":"2 43636  98.0591 283.7904 0008432 199.3503 160.7374 14.57053034205418"},{"line1":"1 43641U 18076A   22221.81112904  .00000122  00000-0  21849-4 0  9998","line2":"2 43641  97.8897  47.7431 0001486  84.9839 275.1553 14.82150490207634"},{"line1":"1 43642U 18077A   22221.80742513  .00000201  00000-0  51725-4 0  9998","line2":"2 43642  98.0850 273.2888 0001070  90.7690 269.3628 14.59624524204282"},{"line1":"1 43643U 18077B   22221.80732012  .00000192  00000-0  49728-4 0  9991","line2":"2 43643  98.0849 273.2586 0001143  99.3175 260.8149 14.59625209204285"},{"line1":"1 43644U 18077C   22221.39366677  .00000977  00000-0  20884-3 0  9998","line2":"2 43644  98.1035 276.2019 0008326 191.9030 168.1975 14.60944860204339"},{"line1":"1 43645U 18050D   22220.13330799 -.00000247  00000-0  00000-0 0  9993","line2":"2 43645   1.2729  96.0593 0029856 289.6901  69.7262  1.00306926 14792"},{"line1":"1 43646U 14090D   22218.22071470  .00000087  00000-0  00000-0 0  9990","line2":"2 43646   3.9836  85.1240 0142120 233.3237 125.3877  1.00283435 27555"},{"line1":"1 43647U 18078A   22221.62061524 -.00000097  00000-0  10000-3 0  9994","line2":"2 43647  55.1050 348.7740 0005635  14.9351 314.3813  1.86232777 25943"},{"line1":"1 43648U 18078B   22221.20646203 -.00000096  00000-0  00000-0 0  9997","line2":"2 43648  55.1017 348.7925 0003955  34.8822 284.4565  1.86232397 25959"},{"line1":"1 43649U 18078C   22221.27828649  .00000659  00000-0  38132-3 0  9995","line2":"2 43649  54.9403 310.0280 5555202 267.7738  31.2160  4.63137959 63886"},{"line1":"1 43650U 18078D   22220.44833816 -.00000085  00000-0  00000-0 0  9991","line2":"2 43650  54.9615 353.0574 0105125  39.4675 321.2921  1.77585586 24744"},{"line1":"1 43651U 18079A   22221.45693258 -.00000279  00000-0  00000-0 0  9994","line2":"2 43651   2.4638 316.5361 0004472 180.3792 277.9406  1.00275171 14189"},{"line1":"1 43652U 18079B   22220.95970311 -.00000028  00000-0  00000-0 0  9999","line2":"2 43652  10.8961 163.1810 4743264  75.0308 331.2202  1.84081240 22117"},{"line1":"1 43655U 18081A   22221.83670815 -.00000010  00000-0  33211-4 0  9994","line2":"2 43655  99.3424 229.8365 0001779  63.2623 296.8714 13.79302645190914"},{"line1":"1 43656U 18081B   22221.39130777  .00000048  00000-0  32440-4 0  9997","line2":"2 43656  99.4046 359.5083 0208133 352.3800   7.4233 14.30590887197921"},{"line1":"1 43657U 18082A   22221.53891741 -.00000031  00000-0  32217-4 0  9995","line2":"2 43657  67.1470 258.5499 0007842 278.1216  81.8979 13.96533422193386"},{"line1":"1 43660U 18081D   22221.49138356  .00000102  00000-0  11899-3 0  9999","line2":"2 43660  99.2548 246.6299 0012992 199.0634 161.0040 13.89891375192313"},{"line1":"1 43661U 18081E   22221.35231444  .00000080  00000-0  10319-3 0  9998","line2":"2 43661  99.2778 247.7216 0013357 169.4511 190.6929 13.88793507192143"},{"line1":"1 43662U 18083A   22221.84010417  .00001774  00000-0  94920-4 0  9992","line2":"2 43662  97.4205 243.2944 0001580  97.1505 245.3883 15.16317700209240"},{"line1":"1 43663U 18083B   22221.79955985  .00004153  00000-0  18762-3 0  9998","line2":"2 43663  97.4171 246.5757 0010846 138.1298 324.0584 15.21463352209436"},{"line1":"1 43664U 18083C   22221.85713168  .00003309  00000-0  15377-3 0  9992","line2":"2 43664  97.4108 244.6513 0012175 139.5530 346.1245 15.20616387209444"},{"line1":"1 43665U 18083D   22221.83352058  .00003273  00000-0  15123-3 0  9997","line2":"2 43665  97.4120 245.1945 0013851 141.7443 338.7906 15.20801680209469"},{"line1":"1 43666U 18083E   22221.79261716  .00006070  00000-0  25300-3 0  9999","line2":"2 43666  97.4194 249.8951 0014061 139.4180 338.2813 15.23985455209609"},{"line1":"1 43668U 18083G   22221.81320811  .00004289  00000-0  19180-3 0  9995","line2":"2 43668  97.4088 244.5917 0010910 137.0032 337.1044 15.21790806209466"},{"line1":"1 43669U 18083H   22221.89538277  .00005506  00000-0  24117-3 0  9990","line2":"2 43669  97.4136 245.8083 0010891 136.1462 345.2054 15.22376993209430"},{"line1":"1 43670U 10007AM  20003.90798733  .00001469  00000-0  71888-3 0  9994","line2":"2 43670  65.1426 329.5250 5911843  16.8714 356.4229  4.11644253 22117"},{"line1":"1 43672U 18084B   22221.78852810  .00000494  00000-0  65320-4 0  9998","line2":"2 43672  97.8523 332.4616 0001480  95.3631 264.7752 14.84249214204797"},{"line1":"1 43673U 18084C   22221.51799654  .00005261  00000-0  52616-3 0  9996","line2":"2 43673  97.9517 347.5938 0016113  79.2952 281.0079 14.91790245205330"},{"line1":"1 43674U 18084D   22221.11820154  .00012447  00000-0  11740-2 0  9999","line2":"2 43674  97.9641 351.2226 0015540  66.1712 294.1134 14.93831718  4857"},{"line1":"1 43675U 18084E   22221.58396749  .00003003  00000-0  31097-3 0  9995","line2":"2 43675  97.9742 350.5442 0018696  78.5652 281.7664 14.90704051205395"},{"line1":"1 43676U 18084F   22221.72895196  .00001022  00000-0  11225-3 0  9992","line2":"2 43676  97.9529 347.6148 0017230  83.3150 277.0040 14.89803144205420"},{"line1":"1 43677U 18084G   22221.35700974  .00000944  00000-0  10060-3 0  9999","line2":"2 43677  97.9707 351.9105 0017216  96.7760 263.5417 14.91209925205562"},{"line1":"1 43678U 18084H   22221.82604084  .00000634  00000-0  67865-4 0  9999","line2":"2 43678  97.9777 355.7394 0011153 106.3446 253.8973 14.92246097205814"},{"line1":"1 43679U 18084J   22221.31348799  .00001813  00000-0  17673-3 0  9993","line2":"2 43679  97.9811 357.2723 0010203 112.6936 247.5363 14.93742560205838"},{"line1":"1 43681U 18084K   22221.35301477  .00001149  00000-0  11591-3 0  9997","line2":"2 43681  97.9773 355.8839 0010633 107.7675 252.4705 14.93079003205742"},{"line1":"1 43682U 18084L   22221.37149669  .00002608  00000-0  18426-3 0  9998","line2":"2 43682  98.8815 192.6267 0056325  89.6563 271.1113 15.04773740207277"},{"line1":"1 43683U 18085A   22221.77197785 -.00000288  00000-0  00000+0 0  9994","line2":"2 43683   0.9445 157.5039 0004466   4.6886 213.9561  1.00274977 13941"},{"line1":"1 43685U 10007AN  19112.49353669  .00187203  00000-0  96864-1 0  9998","line2":"2 43685  65.2140  57.2315 5814437  33.4521 352.4047  4.25760972 12818"},{"line1":"1 43686U 10007AL  22220.40161173 -.00000273  00000-0 -10472-2 0  9996","line2":"2 43686  64.8317   1.8671 5672247 357.0547   0.6041  4.23500106 88249"},{"line1":"1 43687U 18086A   22221.82396897  .00000096  00000-0  00000+0 0  9996","line2":"2 43687  64.3581 240.3342 0011817 262.8013  59.1676  2.13102230 29295"},{"line1":"1 43688U 18086B   22221.12430478  .00000105  00000-0  00000-0 0  9996","line2":"2 43688  64.2996 242.3506 0076403 131.4482 229.2784  2.08702405 28431"},{"line1":"1 43689U 18087A   22221.79468535  .00000047  00000-0  41554-4 0  9994","line2":"2 43689  98.6805 280.9030 0001774 226.8307 133.2722 14.21500244194880"},{"line1":"1 43690U 18088A   22221.51112733  .00006215  00000-0  24377-3 0  9999","line2":"2 43690  85.0356 281.1023 0011333 318.1673  41.8703 15.25470502207843"},{"line1":"1 43692U 18088C   22221.51174317  .00012094  00000-0  42577-3 0  9991","line2":"2 43692  85.0296 279.0065 0011139 287.6361  72.3668 15.29125030207934"},{"line1":"1 43693U 18088D   22221.44162622  .00035666  00000-0  85990-3 0  9996","line2":"2 43693  85.0271 274.8292 0008938 259.8978 100.1266 15.41032370208372"},{"line1":"1 43694U 18088E   22221.41422244  .00007022  00000-0  26178-3 0  9991","line2":"2 43694  85.0289 277.7247 0014335 277.9470  82.0148 15.27142462208050"}]